{
    "links": {
        "self": "http://www.neowsapp.com/rest/v1/neo/3130464?api_key=iIulBulltgU6a56xZRHN4H3l9WmuAYTsLGpBGhQ2"
    },
    "id": "3130464",
    "neo_reference_id": "3130464",
    "name": "(2002 NW)",
    "designation": "2002 NW",
    "nasa_jpl_url": "http://ssd.jpl.nasa.gov/sbdb.cgi?sstr=3130464",
    "absolute_magnitude_h": 24.2,
    "estimated_diameter": {
        "kilometers": {
            "estimated_diameter_min": 0.0384197891,
            "estimated_diameter_max": 0.0859092601
        },
        "meters": {
            "estimated_diameter_min": 38.4197891064,
            "estimated_diameter_max": 85.9092601232
        },
        "miles": {
            "estimated_diameter_min": 0.0238729428,
            "estimated_diameter_max": 0.0533815229
        },
        "feet": {
            "estimated_diameter_min": 126.0491808919,
            "estimated_diameter_max": 281.8545369825
        }
    },
    "is_potentially_hazardous_asteroid": false,
    "close_approach_data": [
        {
            "close_approach_date": "2000-06-27",
            "close_approach_date_full": "2000-Jun-27 01:25",
            "epoch_date_close_approach": 962069100000,
            "relative_velocity": {
                "kilometers_per_second": "29.5970528457",
                "kilometers_per_hour": "106549.3902443803",
                "miles_per_hour": "66205.6475104595"
            },
            "miss_distance": {
                "astronomical": "0.293392817",
                "lunar": "114.129805813",
                "kilometers": "43890940.49649979",
                "miles": "27272565.778845502"
            },
            "orbiting_body": "Earth"
        },
        {
            "close_approach_date": "2002-07-11",
            "close_approach_date_full": "2002-Jul-11 22:07",
            "epoch_date_close_approach": 1026425220000,
            "relative_velocity": {
                "kilometers_per_second": "21.0569519488",
                "kilometers_per_hour": "75805.0270157542",
                "miles_per_hour": "47102.2958143168"
            },
            "miss_distance": {
                "astronomical": "0.0136526989",
                "lunar": "5.3108998721",
                "kilometers": "2042414.675191343",
                "miles": "1269097.6303248134"
            },
            "orbiting_body": "Earth"
        }
    ],
    "orbital_data": {
        "orbit_id": "11",
        "orbit_determination_date": "2017-04-06 09:15:01",
        "first_observation_date": "2002-07-05",
        "last_observation_date": "2002-07-11",
        "data_arc_in_days": 6,
        "observations_used": 46,
        "orbit_uncertainty": "8",
        "minimum_orbit_intersection": ".0132292",
        "jupiter_tisserand_invariant": "4.049",
        "epoch_osculation": "2452463.5",
        "eccentricity": ".6688525171721107",
        "semi_major_axis": "1.612962544601696",
        "inclination": "6.059283641999782",
        "ascending_node_longitude": "102.587455692781",
        "orbital_period": "748.2295410202314",
        "perihelion_distance": ".5341284865405188",
        "perihelion_argument": "287.7541959874909",
        "aphelion_distance": "2.691796602662873",
        "perihelion_time": "2452518.476421999788",
        "mean_anomaly": "333.5488766015073",
        "mean_motion": ".4811357748708106",
        "equinox": "J2000",
        "orbit_class": {
            "orbit_class_type": "APO",
            "orbit_class_description": "Near-Earth asteroid orbits which cross the Earth’s orbit similar to that of 1862 Apollo",
            "orbit_class_range": "a (semi-major axis) > 1.0 AU; q (perihelion) < 1.017 AU"
        }
    },
    "is_sentry_object": false
}